#dP2021  5 29 12  0  0.00000000      96 __u+U ITR00 EXT  IAC
## 2159 561600.00000000   900.00000000 59363 0.5000000000000
+  115   C06C07C08C09C10C11C12C13C14C16C19C20C21C22C23C24C25
+        C26C27C28C29C30C32C33C34C35C36C37C38C39C40C41C42C43
+        C44C45C46E01E02E03E04E05E07E08E09E11E12E13E14E15E18
+        E19E21E24E25E26E27E30E31E33E36G01G02G03G04G05G06G07
+        G08G09G10G12G13G14G15G16G17G18G19G20G21G23G24G25G26
+        G27G28G29G30G31G32J01J02J03R01R02R03R04R05R07R08R09
+        R11R12R13R14R15R16R17R18R19R20R21R22R24  0  0  0  0
++        11 10 13 10  8  9  8 13  9 10  9  9  8  9  9 10  9
++         8  9  9  9 10 10  8  9  7 10 11 11  9 10  8  9  9
++         9  7 11  8  8  8  7  9  9  8  8  8  7  8  7  8  7
++         8  8  8  9  8  8  8  7  9  8  9  9  8  8  8  8  8
++         8  8  8  7  7  7  8  9  7  9  8  8  8  7  7  7  8
++         9  7  8  7  8  9 10  9  8  8  9  9  9  9  9  8  9
++         8  8 10  9  8  8  8 10  9  8  7  9  8  0  0  0  0
%c M  cc GPS ccc cccc cccc cccc cccc ccccc ccccc ccccc ccccc
%c cc cc ccc ccc cccc cccc cccc cccc ccccc ccccc ccccc ccccc
%f  0.0000000  0.000000000  0.00000000000  0.000000000000000
%f  0.0000000  0.000000000  0.00000000000  0.000000000000000
%i    0    0    0    0      0      0      0      0         0
%i    0    0    0    0      0      0      0      0         0
/* IAC                                ULTRA-RAPID PREDICTION
/* S/V CLOCKS ARE ALIGNED TO GNSS TIME                      
/* G:C1WC2W R:C1PC2P E:C1XC5X C:C2IC6I J:C1CC2S             
/* PCV:IGS14_2148 OL/AL:FES2004  NONE     YN ORB:CoN CLK:CoN
*  2021 05 29 16 15  0.00000000
PC06  -7946.105949  26487.530874  32434.694774    440.837024
PC07 -23984.986025  26449.833931 -22563.275143    129.714071
PC08 -15841.305843  38254.021451  -6776.524813   -891.577758
PC09   5513.042889  34482.328440  24245.652415    487.729751
PC10  -7591.117584  28133.173682 -30397.347666    -36.439199
PC11 -19453.570796  -6126.007035 -19009.608243    369.028592
PC12 -18175.878426 -20768.644300  -4166.040000    864.182028
PC13  -7822.323601  40921.617972   5660.032889    279.623895
PC14 -27771.119787   1209.157621  -2784.523998    864.710286
PC16  -4650.756999  27833.159747  31523.742011   -866.359746
PC19  26012.896276  -7576.795857  -6603.643244    852.877006
PC20  25552.465413   4284.478486  10342.547566   -896.842376
PC21  -9786.897300 -14183.333890 -21932.199197   -937.867885
PC22  11357.999644 -15410.040716 -20284.343714   -952.970646
PC23 -11128.667225  25588.735346   -440.571174   -919.957745
PC24 -14763.219423  -6743.535503  22695.694739   -870.333340
PC25 -18058.101584  14588.701284  15469.307351   -909.501963
PC26  -3733.721579 -22013.572672  16753.340122    900.191179
PC27  12937.415424  24233.270658  -4992.249772    539.630863
PC28  -2308.788438  19924.661440 -19402.039656    -68.648521
PC29  16019.484159  -4574.898893  22375.919134    398.885757
PC30  21058.595122  13965.589922  11859.078702    468.761001
PC32   9836.472322  14156.380751  21962.720200   -928.699706
PC33 -26013.568728   7718.981544   6578.529431   -936.738809
PC34 -21085.148556 -13331.138082 -12496.141171   -662.448762
PC35   1983.371765 -19800.359506  19539.371177   -258.092516
PC36  18424.701718 -13851.541007 -15701.444148   -726.806376
PC37   2548.748603  22591.553431 -16153.658374   -883.753776
PC38 -13279.098419  39845.114344  -2587.035868    151.866802
PC39   -820.570933  29025.565187  30636.037518     31.412296
PC40 -15652.398383  23164.772698 -31584.381042    165.759175
PC41 -11641.849182  15455.704842  20161.791769   -945.016043
PC42 -25252.276598  -4701.187744 -10883.920331   -913.696340
PC43 -16415.863478   4078.836177 -22202.133335   -752.357660
PC44 -13599.626419 -23798.885149   5124.719332    212.622592
PC45  10997.113521 -25651.528923    578.429965    453.103584
PC46  15158.188097   5527.308675 -22761.967696    248.639276
PE01  19738.577219   3042.440992 -21847.417876  -1118.068351
PE02 -19808.465552  -2938.524796  21792.621268    222.443398
PE03 -27391.649366 -11211.200730   -821.297804   -436.202356
PE04  24530.127785  -2895.524249 -16297.280841   -781.221207
PE05 -14197.209571 -18963.764937 -17741.515738   -277.128961
PE07  -7137.964041  15581.577555  24146.445533   -543.527827
PE08 -24303.075495   3179.361491  16614.438342   5994.405178
PE09   6789.451210 -15558.487438 -24238.213962   5651.466104
PE11   4543.377234 -26043.005489  13282.959300   5919.070449
PE12  14741.177467  -8251.627714  24297.833925   5186.485700
PE13  -4693.903586  25831.146686 -13681.055083    417.050239
PE14 -26690.604269 -12704.462792  -6275.991115  -1447.842843
PE15 -14622.064141   8359.500619 -24340.414574    811.676075
PE18  18272.168164  18832.109648  -5181.987558  -1585.278633
PE19  26628.764486  12572.138250   3019.492509    289.048233
PE21   3565.944015  17527.108928 -23586.287641   -667.663367
PE24  16072.582637 -22307.196890  10979.168925   -926.286605
PE25  -3365.694478 -17642.625608  23533.713786   -535.309685
PE26   8356.672522  27801.521803   5786.033641   1754.465549
PE27 -15308.079590  22454.487561 -11721.846276    -42.872478
PE30 -25231.330185  13338.302703   7821.993625   2906.248395
PE31  25049.941795 -14158.954173  -6936.450730   -481.657738
PE33  15924.060724  14013.876618  20649.435164   -469.136624
PE36  -7979.244629 -28053.845368  -5016.752039   -213.723380
PG01  13172.137866 -12551.368570  18956.231106    674.722047
PG02 -13242.319148 -13022.779193 -18316.008872   -608.202870
PG03  23282.259776 -12647.829729   -365.613340   -177.320558
PG04  17507.999373  -4621.573379 -19442.566518   -198.109871
PG05 -23019.454404   2459.949865 -13341.162076    -43.379584
PG06  -6881.772250 -22808.282414 -11624.828126     20.837875
PG07   7070.293058 -23760.033069  -8463.292879    164.259191
PG08  23020.642334   3303.300714  13093.530599    -23.078195
PG09   7186.262666 -13656.689397 -21675.963920   -348.312772
PG10   -258.954585  16425.216790  20930.350329   -131.739441
PG12 -24465.553366  10054.906713   1058.978920    -47.729144
PG13 -22504.512799 -12303.306366   7036.674895    138.137493
PG14   1345.110144 -16700.629847  20593.579243     78.527398
PG15 -23360.426807   -659.523658  12575.647763   -146.043667
PG16  20854.035273   3464.886158 -16602.763263   -332.902198
PG17  -7752.086794 -19363.265483  16867.601017    450.135444
PG18  -5326.222973  25371.481213  -5620.335303    348.919482
PG19 -15417.131524 -19657.937479   8906.841044      6.425754
PG20 -23125.896203   7931.060004  -9978.913245    521.699006
PG21  15339.258353  -3934.194547  21987.424212    121.489814
PG23 -11974.167044  18518.279916  14746.481874    102.296198
PG24 -14840.731130   7339.924606  20448.491632    105.480064
PG25 -17649.359587  17195.986050  -9810.310427    146.211055
PG26  13292.936066   9804.219813 -20901.991794     91.617732
PG27  23558.151426  12274.661270   3064.895190   -138.350063
PG28  -4882.651411 -14428.006947  22315.056442    563.402266
PG29  -8323.964912  12164.576491 -22144.046980   -355.304543
PG30  -1318.412345 -26112.670593   3946.064890   -432.343103
PG31   8724.422763  20557.839593 -14101.609942   -120.060009
PG32  11198.765613  19163.676985  14827.138805     20.118832
PJ01 -30779.660316  22222.606285  23417.998905   -386.631561
PJ02 -34604.645744  24205.202045   4415.886092     -0.053226
PJ03 -20753.845371  21431.935556 -25210.111601     -6.658268
PR01  23852.963821   4948.022230   7543.516672     80.141872
PR02  21582.781948  -4340.391381 -12887.963550    480.457311
PR03   5869.037327 -10311.717405 -22538.139336     36.797536
PR04 -12965.318434 -10161.485502 -19441.652232     88.945315
PR05 -24487.890766  -4536.340991  -5453.118402     72.629787
PR07  -5045.793084  10465.442730  22746.861227    -42.405791
PR08  13013.457047  10278.813022  19448.881103    -59.250925
PR09 -16828.716969  16270.577646  10240.720626     -4.704225
PR11   1295.141581  15412.953288 -20276.883513     -7.629116
PR12  13057.541397   -722.593684 -21877.781008    232.885393
PR13  16731.098909 -15857.057804 -10933.991754    -55.443867
PR14  10611.937054 -22018.872463   7277.241460     64.782685
PR15  -1561.544549 -15121.931471  20502.006304    103.573201
PR16 -13573.170763   1828.854150  21469.888584    -15.678431
PR17  -1428.545662 -19886.609977  15934.652394    428.177297
PR18 -10702.628552 -23121.239804    239.986831     78.227586
PR19 -13941.911711 -15197.474692 -15017.538012   -145.645772
PR20  -9332.948592   4482.575751 -23311.134673    -49.957237
PR21   2149.102770  20481.306473 -15042.681362   -212.583061
PR22  11036.220254  23040.854178    819.579393   -115.082762
PR24   9369.382779  -5522.692506  23083.532656     44.525107
EOF
